ONEWEB-0128             
1 47274U 20100S   26014.26025023 -.00000163  00000+0 -48875-3 0  9996
2 47274  87.8918  21.2596 0001566  81.4999 278.6307 13.12441826244555
ONEWEB-0129             
1 47275U 20100T   26014.23993506  .00000352  00000+0  94237-3 0  9995
2 47275  87.8930  21.2218 0001423 131.3792 228.7459 13.12442100244481
ONEWEB-0130             
1 47276U 20100U   26013.73336732 -.00000364  00000+0 -10474-2 0  9997
2 47276  87.8928  21.3167 0001632  90.0296 270.1020 13.12444173244381
ONEWEB-0131             
1 47277U 20100V   26014.26364828 -.00000368  00000+0 -10591-2 0  9998
2 47277  87.8929  21.2417 0001729  89.1037 271.0289 13.12441300244497
ONEWEB-0132             
1 47278U 20100W   26014.06371242  .00000135  00000+0  34069-3 0  9992
2 47278  87.8924  21.2822 0001721  87.2074 272.9251 13.12441759244368
ONEWEB-0133             
1 47279U 20100X   26014.00429391  .00000462  00000+0  12498-2 0  9990
2 47279  87.8925  21.2557 0001690  84.3602 275.7719 13.12443810244512
ONEWEB-0134             
1 47280U 20100Y   26013.97394571 -.00000205  00000+0 -60478-3 0  9997
2 47280  87.8930  21.2582 0001487  87.6666 272.4632 13.12444865244483
ONEWEB-0135             
1 47281U 20100Z   26014.25010041  .00000107  00000+0  26323-3 0  9997
2 47281  87.8928  21.2421 0001421  83.1091 277.0199 13.12442032244544
